[Satellite]
VERSION=1.1
NAME=EXPRESS-AT1
NICKNAME=EXPRESS-AT1
TLE1=1 39612U 14010A   15055.15099340  .00000053  00000-0  00000+0 0  9991
TLE2=2 39612   0.0472 290.7799 0000153  22.9892 310.2588  1.00272751  3623
